NORAD_CAT_ID,OBJECT_NAME,OBJECT_TYPE,EPOCH,MEAN_MOTION,ECCENTRICITY,INCLINATION,RA_OF_ASC_NODE,ARG_OF_PERICENTER,MEAN_ANOMALY,BSTAR,MEAN_MOTION_DOT,MEAN_MOTION_DDOT,TLE_LINE0,TLE_LINE1,TLE_LINE2,SEMIMAJOR_AXIS,PERIOD,APOGEE,PERIGEE,DECAYED
54802.0,STARLINK-5426,PAYLOAD,2024-06-10 04:09:29,15.08836219,0.0001098,53.2174,330.5006,72.5429,287.5683,-3.9439e-05,-9.15e-06,0.0,0 STARLINK-5426,1 54802U 22175AW  24162.17325440 -.00000915  00000-0 -39439-4 0  9996,2 54802  53.2174 330.5006 0001098  72.5429 287.5683 15.08836219 82290,6917.892,95.438,540.517,538.997,0.0
54802.0,STARLINK-5426,PAYLOAD,2024-06-10 18:27:56,15.0885359,7.77e-05,53.2176,327.8224,48.8201,311.2858,7.2548e-05,8.68e-06,0.0,0 STARLINK-5426,1 54802U 22175AW  24162.76940590  .00000868  00000-0  72548-4 0  9993,2 54802  53.2176 327.8224 0000777  48.8201 311.2858 15.08853590 82380,6917.839,95.437,540.241,539.166,0.0
54802.0,STARLINK-5426,PAYLOAD,2024-06-11 04:00:15,15.08845949,0.0001018,53.2183,326.0394,66.8589,293.2511,3.0715e-05,2.01e-06,0.0,0 STARLINK-5426,1 54802U 22175AW  24163.16685021  .00000201  00000-0  30715-4 0  9994,2 54802  53.2183 326.0394 0001018  66.8589 293.2511 15.08845949 82446,6917.862,95.437,540.431,539.023,0.0
54802.0,STARLINK-5426,PAYLOAD,2024-06-12 03:51:03,15.08840911,0.0001091,53.2183,321.5817,86.2423,273.8694,0.00010553,1.392e-05,0.0,0 STARLINK-5426,1 54802U 22175AW  24164.16045403  .00001392  00000-0  10553-3 0  9998,2 54802  53.2183 321.5817 0001091  86.2423 273.8694 15.08840911 82596,6917.878,95.437,540.497,538.988,0.0
54802.0,STARLINK-5426,PAYLOAD,2024-06-12 10:12:36,15.08838131,0.0001391,53.2165,320.3961,85.4775,274.6376,2.4055e-05,9.5e-07,0.0,0 STARLINK-5426,1 54802U 22175AW  24164.42541774  .00000095  00000-0  24055-4 0  9991,2 54802  53.2165 320.3961 0001391  85.4775 274.6376 15.08838131 82639,6917.886,95.438,540.713,538.789,0.0
54802.0,STARLINK-5426,PAYLOAD,2024-06-12 18:09:31,15.08835506,0.0001213,53.2166,318.9063,91.0652,269.0479,-5.1959e-05,-1.115e-05,0.0,0 STARLINK-5426,1 54802U 22175AW  24164.75661939 -.00001115  00000-0 -51959-4 0  9992,2 54802  53.2166 318.9063 0001213  91.0652 269.0479 15.08835506 82686,6917.894,95.438,540.598,538.92,0.0
54802.0,STARLINK-5426,PAYLOAD,2024-06-13 03:41:50,15.0883997,0.0001166,53.217,317.1214,94.0394,266.0731,6.0063e-05,6.68e-06,0.0,0 STARLINK-5426,1 54802U 22175AW  24165.15405791  .00000668  00000-0  60063-4 0  9995,2 54802  53.2170 317.1214 0001166  94.0394 266.0731 15.08839970 82747,6917.88,95.438,540.552,538.939,0.0
54802.0,STARLINK-5426,PAYLOAD,2024-06-13 14:49:32,15.08847396,0.0001212,53.2167,315.0397,93.3876,266.7255,0.00019232,2.775e-05,0.0,0 STARLINK-5426,1 54802U 22175AW  24165.61773436  .00002775  00000-0  19232-3 0  9992,2 54802  53.2167 315.0397 0001212  93.3876 266.7255 15.08847396 84977,6917.858,95.437,540.561,538.884,0.0
54802.0,STARLINK-5426,PAYLOAD,2024-06-13 16:24:55,15.08851423,0.0001111,53.2169,314.7422,96.182,263.9299,0.00013122,1.802e-05,0.0,0 STARLINK-5426,1 54802U 22175AW  24165.68397221  .00001802  00000-0  13122-3 0  9995,2 54802  53.2169 314.7422 0001111  96.1820 263.9299 15.08851423 84986,6917.845,95.437,540.479,538.942,0.0
54802.0,STARLINK-5426,PAYLOAD,2024-06-14 14:40:17,15.08871123,0.0001386,53.2168,310.5779,85.2415,274.8735,-0.0010137,-0.00016398,0.0,0 STARLINK-5426,1 54802U 22175AW  24166.61131703 -.00016398  00000-0 -10137-2 0  9990,2 54802  53.2168 310.5779 0001386  85.2415 274.8735 15.08871123 85129,6917.785,95.436,540.609,538.691,0.0
54802.0,STARLINK-5426,PAYLOAD,2024-06-15 14:31:06,15.08847363,0.0001261,53.218,306.1159,106.707,253.4061,9.2743e-05,1.189e-05,0.0,0 STARLINK-5426,1 54802U 22175AW  24167.60493456  .00001189  00000-0  92743-4 0  9991,2 54802  53.2180 306.1159 0001261 106.7070 253.4061 15.08847363 85274,6917.858,95.437,540.595,538.851,0.0
54802.0,STARLINK-5426,PAYLOAD,2024-06-15 19:17:15,15.08854584,0.0001217,53.2178,305.2269,84.9439,275.1692,0.00015257,2.142e-05,0.0,0 STARLINK-5426,1 54802U 22175AW  24167.80365124  .00002142  00000-0  15257-3 0  9997,2 54802  53.2178 305.2269 0001217  84.9439 275.1692 15.08854584 85308,6917.836,95.437,540.543,538.859,0.0
54802.0,STARLINK-5426,PAYLOAD,2024-06-16 14:21:53,15.08835117,0.0001565,53.2192,301.6575,101.6855,258.4312,1.3904e-05,-6.7e-07,0.0,0 STARLINK-5426,1 54802U 22175AW  24168.59854116 -.00000067  00000-0  13904-4 0  9991,2 54802  53.2192 301.6575 0001565 101.6855 258.4312 15.08835117 85426,6917.895,95.438,540.843,538.678,0.0
54802.0,STARLINK-5426,PAYLOAD,2024-06-16 15:57:17,15.08837286,0.0001328,53.2185,301.364,87.545,272.5694,5.9937e-05,6.66e-06,0.0,0 STARLINK-5426,1 54802U 22175AW  24168.66478090  .00000666  00000-0  59937-4 0  9992,2 54802  53.2185 301.3640 0001328  87.5450 272.5694 15.08837286 85438,6917.889,95.438,540.672,538.835,0.0
54802.0,STARLINK-5426,PAYLOAD,2024-06-17 15:48:04,15.08839845,0.0001277,53.2175,296.904,100.8823,259.2313,-1.0119e-06,-3.04e-06,0.0,0 STARLINK-5426,1 54802U 22175AW  24169.65838081 -.00000304  00000-0 -10119-5 0  9993,2 54802  53.2175 296.9040 0001277 100.8823 259.2313 15.08839845 83426,6917.881,95.438,540.629,538.862,0.0
54802.0,STARLINK-5426,PAYLOAD,2024-06-18 12:28:05,15.08835632,0.0001259,53.2182,293.0364,88.1929,271.9207,0.00011687,1.572e-05,0.0,0 STARLINK-5426,1 54802U 22175AW  24170.51950485  .00001572  00000-0  11687-3 0  9998,2 54802  53.2182 293.0364 0001259  88.1929 271.9207 15.08835632 83553,6917.894,95.438,540.63,538.888,0.0
54802.0,STARLINK-5426,PAYLOAD,2024-06-18 14:03:28,15.08838693,0.0001328,53.2187,292.7392,94.0293,266.085,8.0858e-05,9.99e-06,0.0,0 STARLINK-5426,1 54802U 22175AW  24170.58574358  .00000999  00000-0  80858-4 0  9995,2 54802  53.2187 292.7392 0001328  94.0293 266.0850 15.08838693 85722,6917.884,95.438,540.668,538.831,0.0
54802.0,STARLINK-5426,PAYLOAD,2024-06-18 15:38:51,15.08842124,0.0001395,53.2176,292.4399,80.0853,280.0297,0.00010666,1.41e-05,0.0,0 STARLINK-5426,1 54802U 22175AW  24170.65198183  .00001410  00000-0  10666-3 0  9999,2 54802  53.2176 292.4399 0001395  80.0853 280.0297 15.08842124 83571,6917.874,95.437,540.704,538.774,0.0
54802.0,STARLINK-5426,PAYLOAD,2024-06-19 01:11:10,15.0883837,0.0001094,53.217,290.6554,82.6344,277.4772,3.052e-05,1.98e-06,0.0,0 STARLINK-5426,1 54802U 22175AW  24171.04942364  .00000198  00000-0  30520-4 0  9995,2 54802  53.2170 290.6554 0001094  82.6344 277.4772 15.08838370 83630,6917.885,95.438,540.507,538.994,0.0
54802.0,STARLINK-5426,PAYLOAD,2024-06-19 12:18:52,15.08829324,0.0001266,53.2158,288.5726,80.7243,279.3892,-4.4488e-06,-3.59e-06,0.0,0 STARLINK-5426,1 54802U 22175AW  24171.51311169 -.00000359  00000-0 -44488-5 0  9990,2 54802  53.2158 288.5726 0001266  80.7243 279.3892 15.08829324 83702,6917.913,95.438,540.654,538.902,0.0
54802.0,STARLINK-5426,PAYLOAD,2024-06-19 13:54:16,15.08828866,0.0001128,53.2167,288.2783,86.9682,273.1439,4.0615e-05,3.58e-06,0.0,0 STARLINK-5426,1 54802U 22175AW  24171.57935586  .00000358  00000-0  40615-4 0  9995,2 54802  53.2167 288.2783 0001128  86.9682 273.1439 15.08828866 85873,6917.914,95.438,540.56,538.999,0.0
54802.0,STARLINK-5426,PAYLOAD,2024-06-20 13:45:02,15.08850014,0.0001268,53.2171,283.8177,72.2204,287.8926,0.00015996,2.259e-05,0.0,0 STARLINK-5426,1 54802U 22175AW  24172.57294045  .00002259  00000-0  15996-3 0  9999,2 54802  53.2171 283.8177 0001268  72.2204 287.8926 15.08850014 86020,6917.85,95.437,540.592,538.838,0.0
54802.0,STARLINK-5426,PAYLOAD,2024-06-21 00:52:44,15.08849392,0.0001283,53.2164,281.7362,85.9073,274.2066,0.00015594,2.195e-05,0.0,0 STARLINK-5426,1 54802U 22175AW  24173.03662132  .00002195  00000-0  15594-3 0  9990,2 54802  53.2164 281.7362 0001283  85.9073 274.2066 15.08849392 83936,6917.852,95.437,540.604,538.829,0.0
54802.0,STARLINK-5426,PAYLOAD,2024-06-21 12:00:26,15.08840949,0.0001519,53.2171,279.6517,103.3711,256.745,0.00013495,1.86e-05,0.0,0 STARLINK-5426,1 54802U 22175AW  24173.50030548  .00001860  00000-0  13495-3 0  9998,2 54802  53.2171 279.6517 0001519 103.3711 256.7450 15.08840949 84008,6917.877,95.437,540.793,538.692,0.0
54802.0,STARLINK-5426,PAYLOAD,2024-06-21 13:35:49,15.08838386,0.0001539,53.2186,279.3576,94.5279,265.5889,7.9367e-05,9.75e-06,0.0,0 STARLINK-5426,1 54802U 22175AW  24173.56654903  .00000975  00000-0  79367-4 0  9998,2 54802  53.2186 279.3576 0001539  94.5279 265.5889 15.08838386 86174,6917.885,95.438,540.815,538.686,0.0
54802.0,STARLINK-5426,PAYLOAD,2024-06-21 16:46:35,15.08842189,0.0001469,53.2182,278.7586,109.5255,250.5896,6.921e-05,8.14e-06,0.0,0 STARLINK-5426,1 54802U 22175AW  24173.69902509  .00000814  00000-0  69210-4 0  9998,2 54802  53.2182 278.7586 0001469 109.5255 250.5896 15.08842189 84038,6917.874,95.437,540.755,538.722,0.0
54802.0,STARLINK-5426,PAYLOAD,2024-06-22 11:51:13,15.08847573,0.0001525,53.2181,275.1904,120.2626,239.8517,-3.6336e-05,-8.66e-06,0.0,0 STARLINK-5426,1 54802U 22175AW  24174.49390300 -.00000866  00000-0 -36336-4 0  9999,2 54802  53.2181 275.1904 0001525 120.2626 239.8517 15.08847573 84152,6917.857,95.437,540.777,538.667,0.0
54802.0,STARLINK-5426,PAYLOAD,2024-06-22 13:26:36,15.08846684,0.0001522,53.2179,274.8936,116.389,243.7258,-3.0048e-05,-7.66e-06,0.0,0 STARLINK-5426,1 54802U 22175AW  24174.56014323 -.00000766  00000-0 -30048-4 0  9998,2 54802  53.2179 274.8936 0001522 116.3890 243.7258 15.08846684 86325,6917.86,95.437,540.778,538.672,0.0
54802.0,STARLINK-5426,PAYLOAD,2024-06-22 16:37:22,15.08846859,0.0001548,53.2177,274.2989,115.6117,244.5035,-3.1131e-05,-7.84e-06,0.0,0 STARLINK-5426,1 54802U 22175AW  24174.69262263 -.00000784  00000-0 -31131-4 0  9994,2 54802  53.2177 274.2989 0001548 115.6117 244.5035 15.08846859 84185,6917.859,95.437,540.795,538.654,0.0
54802.0,STARLINK-5426,PAYLOAD,2024-06-23 11:42:00,15.0883691,0.0001462,53.2178,270.7303,106.9129,253.2024,5.0353e-05,5.13e-06,0.0,0 STARLINK-5426,1 54802U 22175AW  24175.48750729  .00000513  00000-0  50353-4 0  9996,2 54802  53.2178 270.7303 0001462 106.9129 253.2024 15.08836910 84304,6917.89,95.438,540.766,538.743,0.0
